GLOBALSTAR M023         
1 25621U 99004A   25080.02082078  .00000033  00000+0  76098-3 0  9998
2 25621  52.0124 321.9136 0009206 295.5010 203.3772 12.62502639204596
GLOBALSTAR M040         
1 25622U 99004B   25080.81922148 -.00000043  00000+0  33710-3 0  9993
2 25622  51.9933 323.5064 0000760 142.2149 294.8117 12.62005210204522
GLOBALSTAR M036         
1 25623U 99004C   25080.54268598 -.00000047  00000+0  51804-3 0  9994
2 25623  51.9945 111.3324 0011105 244.1382 274.6297 11.86591516168577
GLOBALSTAR M038         
1 25624U 99004D   25080.58549485 -.00000049  00000+0  38243-3 0  9990
2 25624  51.9994 323.8568 0001193 213.7761 173.1029 12.32522733191570
GLOBALSTAR M022         
1 25649U 99012A   25080.64931105 -.00000037  00000+0  59643-3 0  9991
2 25649  52.0032 168.8700 0002124  12.3200 134.3870 12.02497567165840
GLOBALSTAR M041         
1 25650U 99012B   25080.84888256 -.00000070  00000+0  19279-3 0  9991
2 25650  52.0033  47.1145 0001693 134.3004 225.7972 11.96669027168072
GLOBALSTAR M046         
1 25651U 99012C   25080.59757454 -.00000066  00000+0  24897-3 0  9996
2 25651  52.0032 122.3411 0002343  85.2928  82.2819 12.09406378173060
GLOBALSTAR M037         
1 25652U 99012D   25080.47401652 -.00000053  00000+0  28560-3 0  9997
2 25652  51.9989  91.1805 0001895 359.9893 155.1966 12.62439912200190
